KNACKSAT-2              
1 67683U 98067XZ  26165.65979306  .00044887  00000+0  55154-3 0  9998
2 67683  51.6308 307.1872 0009407 204.1419 155.9135 15.59771864 19882
INNOSAT 3 (RS92S0)      
1 64894U 25155U   26166.49770940  .00028532  00000+0  63200-3 0  9993
2 64894  97.4486 137.9532 0006232 155.3948 204.7598 15.43721107 80700
