OBJECT_NAME,OBJECT_ID,EPOCH,MEAN_MOTION,ECCENTRICITY,INCLINATION,RA_OF_ASC_NODE,ARG_OF_PERICENTER,MEAN_ANOMALY,EPHEMERIS_TYPE,CLASSIFICATION_TYPE,NORAD_CAT_ID,ELEMENT_SET_NO,REV_AT_EPOCH,BSTAR,MEAN_MOTION_DOT,MEAN_MOTION_DDOT
INNOSAT 3 (RS92S0),2025-155U,2026-06-15T11:56:42.092160,15.43721107,.0006232,97.4486,137.9532,155.3948,204.7598,0,U,64894,999,8070,.632E-3,.28532E-3,0
KNACKSAT-2,1998-067XZ,2026-06-14T15:50:06.120384,15.59771864,.00094076,51.6308,307.1872,204.1419,155.9135,0,U,67683,999,1988,.5515425E-3,.44887E-3,0
